[{"OBJECT_NAME":"JILIN-1 06","OBJECT_ID":"2017-074C","EPOCH":"2026-03-09T22:46:57.173376","MEAN_MOTION":15.32444387,"ECCENTRICITY":0.00061285,"INCLINATION":97.4715,"RA_OF_ASC_NODE":171.0354,"ARG_OF_PERICENTER":223.0031,"MEAN_ANOMALY":137.0732,"EPHEMERIS_TYPE":0,"CLASSIFICATION_TYPE":"U","NORAD_CAT_ID":43024,"ELEMENT_SET_NO":999,"REV_AT_EPOCH":45863,"BSTAR":0.00028431628,"MEAN_MOTION_DOT":8.833e-5,"MEAN_MOTION_DDOT":0},{"OBJECT_NAME":"STARLINK-35160","OBJECT_ID":"2025-225B","EPOCH":"2026-03-09T13:20:09.540672","MEAN_MOTION":15.30187032,"ECCENTRICITY":0.0001148,"INCLINATION":53.1576,"RA_OF_ASC_NODE":166.5841,"ARG_OF_PERICENTER":63.589,"MEAN_ANOMALY":296.5228,"EPHEMERIS_TYPE":0,"CLASSIFICATION_TYPE":"U","NORAD_CAT_ID":65911,"ELEMENT_SET_NO":999,"REV_AT_EPOCH":2438,"BSTAR":0.00099402,"MEAN_MOTION_DOT":0.00029185,"MEAN_MOTION_DDOT":0}]
